     3.04           N: GNSS NAV DATA    G: GPS              RINEX VERSION / TYPE
cnvtToRINEX 3.14.0  convertToRINEX OPR  20250615 162946 UTC PGM / RUN BY / DATE 
----------------------------------------------------------- COMMENT             
GPSA   0.1583D-07  0.2235D-07 -0.1192D-06 -0.1192D-06       IONOSPHERIC CORR    
GPSB   0.1167D+06  0.1638D+06 -0.1311D+06 -0.4588D+06       IONOSPHERIC CORR    
GPUT  0.9313225746D-09-0.266453526D-14 233472 2371          TIME SYSTEM CORR    
    18                                                      LEAP SECONDS        
                                                            END OF HEADER       
G 1 2025 06 15 12 59 44 0.291947275400D-03 0.103455022327D-10 0.000000000000D+00
     0.560000000000D+02 0.965937500000D+02 0.463376444346D-08 0.166560780174D+01
     0.515766441822D-05 0.566763919778D-03 0.501424074173D-05 0.515372169685D+04
     0.467840000000D+05 0.279396772385D-07 0.149350196459D+01 0.800937414169D-07
     0.959211531696D+00 0.281531250000D+03 0.230416638509D+00-0.823855745470D-08
     0.817891211309D-10 0.100000000000D+01 0.237100000000D+04 0.000000000000D+00
     0.200000000000D+01 0.000000000000D+00-0.884756445885D-08 0.312000000000D+03
     0.396480000000D+05 0.400000000000D+01 0.000000000000D+00 0.000000000000D+00
G 2 2025 06 15 11 59 44-0.144942197949D-03 0.909494701773D-11 0.000000000000D+00
     0.140000000000D+02 0.113750000000D+03 0.436553898508D-08 0.287683366500D+01
     0.601448118687D-05 0.164062872063D-01 0.601075589657D-05 0.515370033646D+04
     0.431840000000D+05 0.193715095520D-06 0.132961717114D+01 0.303611159325D-06
     0.965354650942D+00 0.263125000000D+03-0.974114889669D+00-0.783961226560D-08
     0.107147320259D-11 0.100000000000D+01 0.237100000000D+04 0.000000000000D+00
     0.200000000000D+01 0.000000000000D+00-0.176951289177D-07 0.140000000000D+02
     0.367860000000D+05 0.400000000000D+01 0.000000000000D+00 0.000000000000D+00
G32 2025 06 15 12 00 00-0.422520563006D-03 0.111413100967D-10 0.000000000000D+00
     0.740000000000D+02-0.103906250000D+03 0.396373653411D-08-0.308781750539D+01
    -0.530295073986D-05 0.858164974488D-02 0.851042568684D-05 0.515362559700D+04
     0.432000000000D+05 0.167638063431D-07-0.278285468699D+01-0.614672899246D-07
     0.965440031230D+00 0.216312500000D+03-0.205806277069D+01-0.762746057149D-08
     0.882179603464D-10 0.100000000000D+01 0.237100000000D+04 0.000000000000D+00
     0.200000000000D+01 0.000000000000D+00 0.931322574615D-09 0.740000000000D+02
     0.386280000000D+05 0.400000000000D+01 0.000000000000D+00 0.000000000000D+00
G10 2025 06 15 12 00 00-0.454545021057D-03-0.110276232590D-10 0.000000000000D+00
     0.700000000000D+02-0.395937500000D+02 0.384301721995D-08-0.179022366806D+01
    -0.204890966415D-05 0.101754167117D-01 0.244379043579D-05 0.515365106392D+04
     0.432000000000D+05 0.154599547386D-06 0.247024120641D+01-0.137835741043D-06
     0.989639313421D+00 0.348156250000D+03-0.231554083356D+01-0.784711257802D-08
    -0.102861427448D-09 0.100000000000D+01 0.237100000000D+04 0.000000000000D+00
     0.200000000000D+01 0.000000000000D+00 0.232830643654D-08 0.700000000000D+02
     0.386520000000D+05 0.400000000000D+01 0.000000000000D+00 0.000000000000D+00
G 8 2025 06 15 12 00 00 0.526028219610D-03 0.216004991671D-11 0.000000000000D+00
     0.100000000000D+03 0.340625000000D+02 0.477377027526D-08 0.243248452256D+01
     0.170804560184D-05 0.104904975742D-01 0.980496406555D-05 0.515357725525D+04
     0.432000000000D+05-0.212341547012D-06 0.326650040571D+00-0.651925802231D-07
     0.947686620643D+00 0.184750000000D+03 0.456688189342D+00-0.788604277105D-08
    -0.368943939425D-09 0.100000000000D+01 0.237100000000D+04 0.000000000000D+00
     0.280000000000D+01 0.000000000000D+00 0.465661287308D-08 0.100000000000D+03
     0.386520000000D+05 0.400000000000D+01 0.000000000000D+00 0.000000000000D+00
G 3 2025 06 15 11 59 44 0.692971516401D-03-0.227373675443D-12 0.000000000000D+00
     0.710000000000D+02-0.442812500000D+02 0.408481300600D-08-0.752461660031D+00
    -0.225938856602D-05 0.634097598959D-02 0.231340527534D-05 0.515376107597D+04
     0.431840000000D+05-0.167638063431D-07 0.247275353268D+01 0.447034835815D-07
     0.990050128613D+00 0.348343750000D+03 0.117967320578D+01-0.817534053575D-08
    -0.170007081477D-09 0.100000000000D+01 0.237100000000D+04 0.000000000000D+00
     0.200000000000D+01 0.000000000000D+00 0.139698386192D-08 0.710000000000D+02
     0.404580000000D+05 0.400000000000D+01 0.000000000000D+00 0.000000000000D+00
G14 2025 06 15 12 00 00 0.659906305373D-03 0.511590769747D-11 0.000000000000D+00
     0.710000000000D+02-0.200000000000D+01 0.530629245695D-08-0.119743167514D+01
    -0.137835741043D-06 0.592898298055D-02 0.581517815590D-05 0.515370502281D+04
     0.432000000000D+05 0.875443220139D-07-0.659563367405D+00-0.465661287308D-07
     0.943468218827D+00 0.254937500000D+03-0.279436062546D+01-0.829534553444D-08
    -0.385730352932D-10 0.100000000000D+01 0.237100000000D+04 0.000000000000D+00
     0.200000000000D+01 0.000000000000D+00-0.791624188423D-08 0.583000000000D+03
     0.423360000000D+05 0.400000000000D+01 0.000000000000D+00 0.000000000000D+00
G 2 2025 06 15 13 59 44-0.144876539707D-03 0.909494701773D-11 0.000000000000D+00
     0.280000000000D+02 0.106593750000D+03 0.426482050404D-08-0.235619057103D+01
     0.578723847866D-05 0.164053634508D-01 0.630132853985D-05 0.515370195198D+04
     0.503840000000D+05-0.316649675369D-07 0.132956058986D+01 0.299885869026D-06
     0.965355385327D+00 0.260156250000D+03-0.974113318495D+00-0.777568103118D-08
     0.102147111980D-09 0.100000000000D+01 0.237100000000D+04 0.000000000000D+00
     0.200000000000D+01 0.000000000000D+00-0.176951289177D-07 0.280000000000D+02
     0.432180000000D+05 0.400000000000D+01 0.000000000000D+00 0.000000000000D+00
G 3 2025 06 15 14 00 00 0.692970119417D-03-0.227373675443D-12 0.000000000000D+00
     0.780000000000D+02-0.315625000000D+02 0.402159608705D-08 0.300054353737D+00
    -0.158511102200D-05 0.634288589936D-02 0.261142849922D-05 0.515376478386D+04
     0.504000000000D+05-0.502914190292D-07 0.247269476580D+01 0.726431608200D-07
     0.990048882207D+00 0.342968750000D+03 0.117961380107D+01-0.815212528303D-08
    -0.188579283656D-09 0.100000000000D+01 0.237100000000D+04 0.000000000000D+00
     0.200000000000D+01 0.000000000000D+00 0.139698386192D-08 0.780000000000D+02
     0.432180000000D+05 0.400000000000D+01 0.000000000000D+00 0.000000000000D+00
G 1 2025 06 15 14 00 00 0.291984528303D-03 0.103455022327D-10 0.000000000000D+00
     0.570000000000D+02 0.900937500000D+02 0.460340603605D-08 0.219149512493D+01
     0.474415719509D-05 0.566463568248D-03 0.519864261150D-05 0.515372336960D+04
     0.504000000000D+05-0.651925802231D-07 0.149347196307D+01 0.614672899246D-07
     0.959212015922D+00 0.278500000000D+03 0.231939003728D+00-0.819891294621D-08
     0.130005415247D-09 0.100000000000D+01 0.237100000000D+04 0.000000000000D+00
     0.200000000000D+01 0.000000000000D+00-0.884756445885D-08 0.313000000000D+03
     0.432180000000D+05 0.400000000000D+01 0.000000000000D+00 0.000000000000D+00
G 8 2025 06 15 14 00 00 0.526044052094D-03 0.216004991671D-11 0.000000000000D+00
     0.101000000000D+03 0.306562500000D+02 0.477341311753D-08-0.280047250116D+01
     0.143609941006D-05 0.104907874484D-01 0.985898077488D-05 0.515357676888D+04
     0.504000000000D+05-0.132247805595D-06 0.326593119892D+00-0.193715095520D-06
     0.947683977150D+00 0.184687500000D+03 0.456701582357D+00-0.791175812791D-08
    -0.328942273195D-09 0.100000000000D+01 0.237100000000D+04 0.000000000000D+00
     0.280000000000D+01 0.000000000000D+00 0.465661287308D-08 0.101000000000D+03
     0.432180000000D+05 0.400000000000D+01 0.000000000000D+00 0.000000000000D+00
G32 2025 06 15 14 00 00-0.422440003604D-03 0.111413100967D-10 0.000000000000D+00
     0.750000000000D+02-0.107718750000D+03 0.405338312539D-08-0.203761415152D+01
    -0.554136931896D-05 0.858225626871D-02 0.846572220325D-05 0.515362462234D+04
     0.504000000000D+05 0.163912773132D-06-0.278290902415D+01-0.180676579475D-06
     0.965440282852D+00 0.220906250000D+03-0.205805924213D+01-0.767317676147D-08
    -0.385730352932D-10 0.100000000000D+01 0.237100000000D+04 0.000000000000D+00
     0.200000000000D+01 0.000000000000D+00 0.931322574615D-09 0.750000000000D+02
     0.432180000000D+05 0.400000000000D+01 0.000000000000D+00 0.000000000000D+00
G10 2025 06 15 14 00 00-0.454623717815D-03-0.109139364213D-10 0.000000000000D+00
     0.730000000000D+02-0.326250000000D+02 0.411338562474D-08-0.740117152050D+00
    -0.180304050446D-05 0.101754068164D-01 0.236742198467D-05 0.515364948654D+04
     0.504000000000D+05 0.260770320892D-07 0.247018452272D+01 0.260770320892D-06
     0.989636456342D+00 0.347593750000D+03-0.231545638369D+01-0.822677124947D-08
    -0.243224416988D-09 0.100000000000D+01 0.237100000000D+04 0.000000000000D+00
     0.200000000000D+01 0.000000000000D+00 0.232830643654D-08 0.730000000000D+02
     0.433020000000D+05 0.400000000000D+01 0.000000000000D+00 0.000000000000D+00
G17 2025 06 15 14 00 00 0.233422964811D-03-0.171667124960D-10 0.000000000000D+00
     0.800000000000D+02 0.530000000000D+02 0.437268213976D-08-0.273234584572D+01
     0.283308327198D-05 0.130560341058D-01 0.985711812973D-05 0.515370385742D+04
     0.504000000000D+05 0.894069671631D-07 0.427232702471D+00 0.216066837311D-06
     0.963440072998D+00 0.188250000000D+03-0.121100559607D+01-0.757638701550D-08
    -0.262510934634D-09 0.100000000000D+01 0.237100000000D+04 0.000000000000D+00
     0.200000000000D+01 0.000000000000D+00-0.111758708954D-07 0.800000000000D+02
     0.437820000000D+05 0.400000000000D+01 0.000000000000D+00 0.000000000000D+00
G22 2025 06 15 14 00 00-0.102506019175D-03 0.454747350886D-12 0.000000000000D+00
     0.310000000000D+02-0.718750000000D+00 0.480984320642D-08-0.220769350773D+01
     0.292435288429D-06 0.130870223511D-01 0.625848770142D-05 0.515364485168D+04
     0.504000000000D+05-0.186264514923D-07-0.588463137863D+00 0.292435288429D-06
     0.958861992291D+00 0.256093750000D+03-0.106070715396D+01-0.792461580634D-08
    -0.125005206969D-09 0.100000000000D+01 0.237100000000D+04 0.000000000000D+00
     0.200000000000D+01 0.000000000000D+00-0.111758708954D-07 0.310000000000D+02
     0.445680000000D+05 0.400000000000D+01 0.000000000000D+00 0.000000000000D+00
